CCSDS_OMM_VERS = 2.0
CREATION_DATE  = 
ORIGINATOR     = 

OBJECT_NAME    = CZ-2C R/B
OBJECT_ID      = 2022-132E
CENTER_NAME    = EARTH
REF_FRAME      = TEME
TIME_SYSTEM    = UTC
MEAN_ELEMENT_THEORY = SGP/SGP4

EPOCH          = 2025-12-23T11:32:33.662688
MEAN_MOTION    = 15.55447462
ECCENTRICITY   = .00214204
INCLINATION    = 97.2943
RA_OF_ASC_NODE = 353.8892
ARG_OF_PERICENTER = 20.5529
MEAN_ANOMALY   = 339.6583

EPHEMERIS_TYPE = 0
CLASSIFICATION_TYPE = U
NORAD_CAT_ID   = 54039
ELEMENT_SET_NO = 999
REV_AT_EPOCH   = 17850
BSTAR          = .47220351E-3
MEAN_MOTION_DOT = .32485E-3
MEAN_MOTION_DDOT = 0

CCSDS_OMM_VERS = 2.0
CREATION_DATE  = 
ORIGINATOR     = 

OBJECT_NAME    = GSLV R/B
OBJECT_ID      = 2022-138AN
CENTER_NAME    = EARTH
REF_FRAME      = TEME
TIME_SYSTEM    = UTC
MEAN_ELEMENT_THEORY = SGP/SGP4

EPOCH          = 2025-12-24T02:12:38.197728
MEAN_MOTION    = 14.96184937
ECCENTRICITY   = .00240806
INCLINATION    = 87.3820
RA_OF_ASC_NODE = 191.6716
ARG_OF_PERICENTER = 68.4582
MEAN_ANOMALY   = 291.9212

EPHEMERIS_TYPE = 0
CLASSIFICATION_TYPE = U
NORAD_CAT_ID   = 54149
ELEMENT_SET_NO = 999
REV_AT_EPOCH   = 17262
BSTAR          = .26772803E-3
MEAN_MOTION_DOT = .3061E-4
MEAN_MOTION_DDOT = 0

CCSDS_OMM_VERS = 2.0
CREATION_DATE  = 
ORIGINATOR     = 

OBJECT_NAME    = XRISM
OBJECT_ID      = 2023-137A
CENTER_NAME    = EARTH
REF_FRAME      = TEME
TIME_SYSTEM    = UTC
MEAN_ELEMENT_THEORY = SGP/SGP4

EPOCH          = 2025-12-24T04:49:23.138400
MEAN_MOTION    = 15.10449515
ECCENTRICITY   = .0007632
INCLINATION    = 31.0028
RA_OF_ASC_NODE = 51.5404
ARG_OF_PERICENTER = 0.6341
MEAN_ANOMALY   = 359.4306

EPHEMERIS_TYPE = 0
CLASSIFICATION_TYPE = U
NORAD_CAT_ID   = 57800
ELEMENT_SET_NO = 999
REV_AT_EPOCH   = 12636
BSTAR          = .37811093E-3
MEAN_MOTION_DOT = .6474E-4
MEAN_MOTION_DDOT = 0

CCSDS_OMM_VERS = 2.0
CREATION_DATE  = 
ORIGINATOR     = 

OBJECT_NAME    = ACS3
OBJECT_ID      = 2024-077B
CENTER_NAME    = EARTH
REF_FRAME      = TEME
TIME_SYSTEM    = UTC
MEAN_ELEMENT_THEORY = SGP/SGP4

EPOCH          = 2025-12-23T20:57:39.210336
MEAN_MOTION    = 13.85981217
ECCENTRICITY   = .0074923
INCLINATION    = 97.2606
RA_OF_ASC_NODE = 310.9919
ARG_OF_PERICENTER = 311.0036
MEAN_ANOMALY   = 48.4662

EPHEMERIS_TYPE = 0
CLASSIFICATION_TYPE = U
NORAD_CAT_ID   = 59588
ELEMENT_SET_NO = 999
REV_AT_EPOCH   = 8368
BSTAR          = .20347E-1
MEAN_MOTION_DOT = .23957E-3
MEAN_MOTION_DDOT = 0

CCSDS_OMM_VERS = 2.0
CREATION_DATE  = 
ORIGINATOR     = 

OBJECT_NAME    = SZ-21 MODULE
OBJECT_ID      = 2025-246C
CENTER_NAME    = EARTH
REF_FRAME      = TEME
TIME_SYSTEM    = UTC
MEAN_ELEMENT_THEORY = SGP/SGP4

EPOCH          = 2025-12-24T05:36:50.034816
MEAN_MOTION    = 15.63078368
ECCENTRICITY   = .00048386
INCLINATION    = 41.4770
RA_OF_ASC_NODE = 305.9006
ARG_OF_PERICENTER = 322.6697
MEAN_ANOMALY   = 37.3806

EPHEMERIS_TYPE = 0
CLASSIFICATION_TYPE = U
NORAD_CAT_ID   = 66515
ELEMENT_SET_NO = 999
REV_AT_EPOCH   = 624
BSTAR          = .31978683E-3
MEAN_MOTION_DOT = .29746E-3
MEAN_MOTION_DDOT = 0

