CZ-2C R/B               
1 54039U 22132E   25357.48094517  .00032485  00000+0  47220-3 0  9990
2 54039  97.2943 353.8892 0021420  20.5529 339.6583 15.55447462178508
GSLV R/B                
1 54149U 22138AN  25358.09210877  .00003061  00000+0  26773-3 0  9993
2 54149  87.3820 191.6716 0024080  68.4582 291.9212 14.96184937172627
XRISM                   
1 57800U 23137A   25358.20096225  .00006474  00000+0  37811-3 0  9998
2 57800  31.0028  51.5404 0007632   0.6341 359.4306 15.10449515126360
ACS3                    
1 59588U 24077B   25357.87337049  .00023957  00000+0  20347-1 0  9990
2 59588  97.2606 310.9919 0074923 311.0036  48.4662 13.85981217 83688
SZ-21 MODULE            
1 66515U 25246C   25358.23391244  .00029746  00000+0  31979-3 0  9992
2 66515  41.4770 305.9006 0004838 322.6697  37.3806 15.63078368  6245
